{"type": "FeatureCollection", "features": [ {"type": "Feature", "properties": {"norad_id": 67049, "name": "STARLINK-35877", "group": "last-30-days", "lat": -42.47939725928798, "lon": 56.48241009167621, "alt_km": 306.82345349976913, "timestamp": "2025-12-20T07:33:49.517063+00:00", "meta": {"OBJECT_NAME": "STARLINK-35877", "OBJECT_ID": "2025-294V", "EPOCH": "2025-12-19T22:00:01.999584", "MEAN_MOTION": 15.90332197, "ECCENTRICITY": 0.00016367, "INCLINATION": 43.0003, "RA_OF_ASC_NODE": 138.2652, "ARG_OF_PERICENTER": 278.0775, "MEAN_ANOMALY": 236.5828, "EPHEMERIS_TYPE": 0, "CLASSIFICATION_TYPE": "U", "NORAD_CAT_ID": 67049, "ELEMENT_SET_NO": 999, "REV_AT_EPOCH": 146, "BSTAR": -0.0051554209, "MEAN_MOTION_DOT": -0.01423784, "MEAN_MOTION_DDOT": 0}, "tle": {"line1": "1 67049U 25294V   25353.91668981 -.01423784  00000+0 -51554-2 0  9996", "line2": "2 67049  43.0003 138.2652 0001636 278.0775 236.5828 15.90332197  1462"}}, "geometry": {"type": "Point", "coordinates": [56.48241009167621, -42.47939725928798]}}, {"type": "Feature", "properties": {"norad_id": 67050, "name": "STARLINK-36078", "group": "last-30-days", "lat": -42.13766086433736, "lon": 59.63147121553062, "alt_km": 306.7980252333282, "timestamp": "2025-12-20T07:33:49.517073+00:00", "meta": {"OBJECT_NAME": "STARLINK-36078", "OBJECT_ID": "2025-294W", "EPOCH": "2025-12-19T22:00:01.999584", "MEAN_MOTION": 15.90378256, "ECCENTRICITY": 0.00014906, "INCLINATION": 43.0001, "RA_OF_ASC_NODE": 138.2594, "ARG_OF_PERICENTER": 276.0266, "MEAN_ANOMALY": 240.9324, "EPHEMERIS_TYPE": 0, "CLASSIFICATION_TYPE": "U", "NORAD_CAT_ID": 67050, "ELEMENT_SET_NO": 999, "REV_AT_EPOCH": 138, "BSTAR": -0.0051724516, "MEAN_MOTION_DOT": -0.01430714, "MEAN_MOTION_DDOT": 0}, "tle": {"line1": "1 67050U 25294W   25353.91668981 -.01430714  00000+0 -51725-2 0  9999", "line2": "2 67050  43.0001 138.2594 0001490 276.0266 240.9324 15.90378256  1385"}}, "geometry": {"type": "Point", "coordinates": [59.63147121553062, -42.13766086433736]}}, {"type": "Feature", "properties": {"norad_id": 67051, "name": "STARLINK-35706", "group": "last-30-days", "lat": -41.70948555847494, "lon": 62.75029061647711, "alt_km": 306.63875613337495, "timestamp": "2025-12-20T07:33:49.517083+00:00", "meta": {"OBJECT_NAME": "STARLINK-35706", "OBJECT_ID": "2025-294X", "EPOCH": "2025-12-19T22:00:01.999584", "MEAN_MOTION": 15.90426839, "ECCENTRICITY": 0.0001543, "INCLINATION": 43.0001, "RA_OF_ASC_NODE": 138.2534, "ARG_OF_PERICENTER": 274.0959, "MEAN_ANOMALY": 245.166, "EPHEMERIS_TYPE": 0, "CLASSIFICATION_TYPE": "U", "NORAD_CAT_ID": 67051, "ELEMENT_SET_NO": 999, "REV_AT_EPOCH": 146, "BSTAR": -0.0051979586, "MEAN_MOTION_DOT": -0.01440034, "MEAN_MOTION_DDOT": 0}, "tle": {"line1": "1 67051U 25294X   25353.91668981 -.01440034  00000+0 -51980-2 0  9999", "line2": "2 67051  43.0001 138.2534 0001543 274.0959 245.1660 15.90426839  1466"}}, "geometry": {"type": "Point", "coordinates": [62.75029061647711, -41.70948555847494]}}, {"type": "Feature", "properties": {"norad_id": 67052, "name": "STARLINK-35720", "group": "last-30-days", "lat": -41.31598240623446, "lon": 65.16152604962622, "alt_km": 306.48339149300864, "timestamp": "2025-12-20T07:33:49.517095+00:00", "meta": {"OBJECT_NAME": "STARLINK-35720", "OBJECT_ID": "2025-294Y", "EPOCH": "2025-12-19T22:00:01.999584", "MEAN_MOTION": 15.90473874, "ECCENTRICITY": 0.00015542, "INCLINATION": 43.0003, "RA_OF_ASC_NODE": 138.249, "ARG_OF_PERICENTER": 278.927, "MEAN_ANOMALY": 242.1248, "EPHEMERIS_TYPE": 0, "CLASSIFICATION_TYPE": "U", "NORAD_CAT_ID": 67052, "ELEMENT_SET_NO": 999, "REV_AT_EPOCH": 145, "BSTAR": -0.0051970997, "MEAN_MOTION_DOT": -0.01442893, "MEAN_MOTION_DDOT": 0}, "tle": {"line1": "1 67052U 25294Y   25353.91668981 -.01442893  00000+0 -51971-2 0  9995", "line2": "2 67052  43.0003 138.2490 0001554 278.9270 242.1248 15.90473874  1450"}}, "geometry": {"type": "Point", "coordinates": [65.16152604962622, -41.31598240623446]}}, {"type": "Feature", "properties": {"norad_id": 67053, "name": "STARLINK-35739", "group": "last-30-days", "lat": -40.79120707584613, "lon": 67.94742547587576, "alt_km": 306.3932710200179, "timestamp": "2025-12-20T07:33:49.517105+00:00", "meta": {"OBJECT_NAME": "STARLINK-35739", "OBJECT_ID": "2025-294Z", "EPOCH": "2025-12-19T22:00:01.999584", "MEAN_MOTION": 15.90524533, "ECCENTRICITY": 0.00015005, "INCLINATION": 43.0003, "RA_OF_ASC_NODE": 138.2433, "ARG_OF_PERICENTER": 275.5922, "MEAN_ANOMALY": 247.5642, "EPHEMERIS_TYPE": 0, "CLASSIFICATION_TYPE": "U", "NORAD_CAT_ID": 67053, "ELEMENT_SET_NO": 999, "REV_AT_EPOCH": 130, "BSTAR": -0.0052220313, "MEAN_MOTION_DOT": -0.01452155, "MEAN_MOTION_DDOT": 0}, "tle": {"line1": "1 67053U 25294Z   25353.91668981 -.01452155  00000+0 -52220-2 0  9996", "line2": "2 67053  43.0003 138.2433 0001500 275.5922 247.5642 15.90524533  1306"}}, "geometry": {"type": "Point", "coordinates": [67.94742547587576, -40.79120707584613]}}, {"type": "Feature", "properties": {"norad_id": 67054, "name": "STARLINK-35754", "group": "last-30-days", "lat": -40.12422245107989, "lon": 71.01545930072082, "alt_km": 306.29044778421576, "timestamp": "2025-12-20T07:33:49.517118+00:00", "meta": {"OBJECT_NAME": "STARLINK-35754", "OBJECT_ID": "2025-294AA", "EPOCH": "2025-12-19T22:00:01.999584", "MEAN_MOTION": 15.90578856, "ECCENTRICITY": 0.00014663, "INCLINATION": 43.0001, "RA_OF_ASC_NODE": 138.2376, "ARG_OF_PERICENTER": 273.6489, "MEAN_ANOMALY": 251.8736, "EPHEMERIS_TYPE": 0, "CLASSIFICATION_TYPE": "U", "NORAD_CAT_ID": 67054, "ELEMENT_SET_NO": 999, "REV_AT_EPOCH": 130, "BSTAR": -0.0052654598, "MEAN_MOTION_DOT": -0.01466152, "MEAN_MOTION_DDOT": 0}, "tle": {"line1": "1 67054U 25294AA  25353.91668981 -.01466152  00000+0 -52655-2 0  9991", "line2": "2 67054  43.0001 138.2376 0001466 273.6489 251.8736 15.90578856  1308"}}, "geometry": {"type": "Point", "coordinates": [71.01545930072082, -40.12422245107989]}}, {"type": "Feature", "properties": {"norad_id": 67055, "name": "STARLINK-35790", "group": "last-30-days", "lat": -39.414038602448926, "lon": 73.88133982642643, "alt_km": 306.1073486444666, "timestamp": "2025-12-20T07:33:49.517128+00:00", "meta": {"OBJECT_NAME": "STARLINK-35790", "OBJECT_ID": "2025-294AB", "EPOCH": "2025-12-19T22:00:01.999584", "MEAN_MOTION": 15.90625444, "ECCENTRICITY": 0.00015262, "INCLINATION": 42.9999, "RA_OF_ASC_NODE": 138.2315, "ARG_OF_PERICENTER": 274.2635, "MEAN_ANOMALY": 253.5168, "EPHEMERIS_TYPE": 0, "CLASSIFICATION_TYPE": "U", "NORAD_CAT_ID": 67055, "ELEMENT_SET_NO": 999, "REV_AT_EPOCH": 146, "BSTAR": -0.0052708179, "MEAN_MOTION_DOT": -0.01470577, "MEAN_MOTION_DDOT": 0}, "tle": {"line1": "1 67055U 25294AB  25353.91668981 -.01470577  00000+0 -52708-2 0  9997", "line2": "2 67055  42.9999 138.2315 0001526 274.2635 253.5168 15.90625444  1464"}}, "geometry": {"type": "Point", "coordinates": [73.88133982642643, -39.414038602448926]}}, {"type": "Feature", "properties": {"norad_id": 67056, "name": "STARLINK-36143", "group": "last-30-days", "lat": -37.32692447861948, "lon": 80.8266426249908, "alt_km": 305.69433236413624, "timestamp": "2025-12-20T07:33:49.517146+00:00", "meta": {"OBJECT_NAME": "STARLINK-36143", "OBJECT_ID": "2025-294AC", "EPOCH": "2025-12-19T22:00:01.999584", "MEAN_MOTION": 15.90772692, "ECCENTRICITY": 0.00015006, "INCLINATION": 42.9999, "RA_OF_ASC_NODE": 138.217, "ARG_OF_PERICENTER": 273.375, "MEAN_ANOMALY": 260.0497, "EPHEMERIS_TYPE": 0, "CLASSIFICATION_TYPE": "U", "NORAD_CAT_ID": 67056, "ELEMENT_SET_NO": 999, "REV_AT_EPOCH": 146, "BSTAR": -0.0052851281, "MEAN_MOTION_DOT": -0.01483801, "MEAN_MOTION_DDOT": 0}, "tle": {"line1": "1 67056U 25294AC  25353.91668981 -.01483801  00000+0 -52851-2 0  9991", "line2": "2 67056  42.9999 138.2170 0001500 273.3750 260.0497 15.90772692  1460"}}, "geometry": {"type": "Point", "coordinates": [80.8266426249908, -37.32692447861948]}}, {"type": "Feature", "properties": {"norad_id": 67057, "name": "STARLINK-36141", "group": "last-30-days", "lat": -38.10836680283365, "lon": 78.42777148428935, "alt_km": 305.75115665084377, "timestamp": "2025-12-20T07:33:49.517158+00:00", "meta": {"OBJECT_NAME": "STARLINK-36141", "OBJECT_ID": "2025-294AD", "EPOCH": "2025-12-19T22:00:01.999584", "MEAN_MOTION": 15.90722642, "ECCENTRICITY": 0.00015583, "INCLINATION": 42.9999, "RA_OF_ASC_NODE": 138.2224, "ARG_OF_PERICENTER": 282.0464, "MEAN_ANOMALY": 249.3923, "EPHEMERIS_TYPE": 0, "CLASSIFICATION_TYPE": "U", "NORAD_CAT_ID": 67057, "ELEMENT_SET_NO": 999, "REV_AT_EPOCH": 138, "BSTAR": -0.0052815608, "MEAN_MOTION_DOT": -0.01479653, "MEAN_MOTION_DDOT": 0}, "tle": {"line1": "1 67057U 25294AD  25353.91668981 -.01479653  00000+0 -52816-2 0  9993", "line2": "2 67057  42.9999 138.2224 0001558 282.0464 249.3923 15.90722642  1388"}}, "geometry": {"type": "Point", "coordinates": [78.42777148428935, -38.10836680283365]}}, {"type": "Feature", "properties": {"norad_id": 67058, "name": "STARLINK-35767", "group": "last-30-days", "lat": -38.7629733379363, "lon": 76.24650918773035, "alt_km": 305.95222841073155, "timestamp": "2025-12-20T07:33:49.517169+00:00", "meta": {"OBJECT_NAME": "STARLINK-35767", "OBJECT_ID": "2025-294AE", "EPOCH": "2025-12-19T22:00:01.999584", "MEAN_MOTION": 15.90669992, "ECCENTRICITY": 0.0001522, "INCLINATION": 43.0001, "RA_OF_ASC_NODE": 138.2265, "ARG_OF_PERICENTER": 276.7916, "MEAN_ANOMALY": 252.88, "EPHEMERIS_TYPE": 0, "CLASSIFICATION_TYPE": "U", "NORAD_CAT_ID": 67058, "ELEMENT_SET_NO": 999, "REV_AT_EPOCH": 130, "BSTAR": -0.005262119, "MEAN_MOTION_DOT": -0.01471423, "MEAN_MOTION_DDOT": 0}, "tle": {"line1": "1 67058U 25294AE  25353.91668981 -.01471423  00000+0 -52621-2 0  9995", "line2": "2 67058  43.0001 138.2265 0001522 276.7916 252.8800 15.90669992  1306"}}, "geometry": {"type": "Point", "coordinates": [76.24650918773035, -38.7629733379363]}}]}